#dP2020  3 17  0  0  0.00000000      97 __u+U IGS08 FIT  IAC
## 2097 172800.00000000   900.00000000 58925 0.0000000000000
+  122   C01C02C04C05C06C07C08C09C10C11C12C13C14C16C19C20C21
+        C22C23C24C25C26C27C28C29C30C32C33C34C35C36C37C38C39
+        C40C43C44C45C46E01E02E03E04E05E07E08E09E11E12E13E14
+        E15E18E19E21E24E25E26E27E30E31E33E36G01G02G03G04G05
+        G06G07G08G09G10G11G12G13G14G15G16G17G18G19G20G21G22
+        G23G24G25G26G27G28G29G30G31G32J01J02J03J07R01R02R03
+        R04R05R07R08R09R11R12R13R14R15R16R17R18R19R20R21R22
+        R23R24R26  0  0  0  0  0  0  0  0  0  0  0  0  0  0
++         0  0  0  0  0  0  0  0  0  0  0  0  0  0  0  0  0
++         0  0  0  0  0  0  0  0  0  0  0  0  0  0  0  0  0
++         0  0  0  0  0  0  0  0  0  0  0  0  0  0  0  0  0
++         0  0  0  0  0  0  0  0  0  0  0  0  0  0  0  0  0
++         0  0  0  0  0  0  0  0  0  0  0  0  0  0  0  0  0
++         0  0  0  0  0  0  0  0  0  0  0  0  0  0  0  0  0
++         0  0  0  0  0  0  0  0  0  0  0  0  0  0  0  0  0
++         0  0  0  0  0  0  0  0  0  0  0  0  0  0  0  0  0
%c M  cc GPS ccc cccc cccc cccc cccc ccccc ccccc ccccc ccccc
%c cc cc ccc ccc cccc cccc cccc cccc ccccc ccccc ccccc ccccc
%f  1.2500000  1.025000000  0.00000000000  0.000000000000000
%f  0.0000000  0.000000000  0.00000000000  0.000000000000000
%i    0    0    0    0      0      0      0      0         0
%i    0    0    0    0      0      0      0      0         0
/* INFORMATION & ANALYSIS CENTER (IAC)            FINAL DATA
/* S/V CLOCKS ARE ALIGNED TO GNSS TIME                      
/* G:C1WC2W R:C1PC2P E:C1XC5X C:C2IC6I J:C1CC2S             
/* PCV:IGS14_2091 OL/AL:FES2004  NONE     YN ORB:CoN CLK:CoN
*  2020 03 17  7 45  0.00000000
PC01 -32271.758078  27112.187226    797.861092    322.900766
PC02   4387.556260  41904.960985  -1179.600604    477.475450
PC04 -39611.075629  14459.422139    404.524519   -183.715579
PC05  21889.174038  35967.443520  -1419.794045   -139.232901
PC06  -7778.462822  33131.117703 -24231.965874    240.918967
PC07 -17785.945900  22367.400449  31059.194104    935.237713
PC08 -24155.547376  34063.620310  -6860.987321   -158.924684
PC09   1928.276551  40047.593971 -12170.627885    407.265043
PC10  -1822.678015  26186.058101  33176.917885   -763.170392
PC11  -3646.576512 -27205.119781   4962.119210   -245.385590
PC12   7983.387468 -23325.957894 -13018.323981    333.321638
PC13 -13058.562311  35217.985401 -19312.582620    327.953392
PC14 -10227.822615 -19221.816429  17455.873995    207.636597
PC16  -4093.199096  35743.546762 -21760.268261   -722.535110
PC19  18754.376552  17935.756355 -10252.885868    354.351540
PC20   1179.028704  17603.975234 -21606.360365   -878.723792
PC21  17763.458559  -6717.808336  20475.222272   -181.888389
PC22  25767.688023   7919.107146   7281.334930   -869.678431
PC23 -23385.105771   1583.638279 -15149.921659   -925.852012
PC24   9955.964840 -19965.896766 -16757.294595   -898.388163
PC25 -10263.816178 -12551.766565 -22719.026667   -551.119240
PC26  22744.612296 -16045.982766  -1723.201374    609.566154
PC27 -13035.566414  15508.097980  19168.151194    296.604333
PC28 -15616.580147  -5468.995842  22475.422671    287.561842
PC29   9945.725243  22807.239385 -12632.302505    202.034163
PC30  -2013.883045  27378.314006   4937.256922    287.895731
PC32 -17683.420987   6863.851759 -20447.271792   -899.026414
PC33 -18742.132072 -17891.313737  10351.339668   -908.009316
PC34   1829.144163 -27493.107516  -4518.883015   -554.326795
PC35  15836.786934   5067.437358 -22403.508757   -935.834925
PC36   9734.194027  12942.356932  22745.223061   -822.012717
PC37 -23384.439999  15205.760048   1118.610918   -857.027129
PC38 -21337.872791  35180.028179  -9449.854525     67.170453
PC39  -2116.544782  35680.585666 -22286.195439     11.984734
PC40  -6727.092438  21012.481231  35917.344680     26.850594
PC43  -9731.962202 -23050.353567  12385.686246 999999.999999
PC44  12703.354269 -15807.358007 -19187.188436   -124.436621
PC45  23299.363978  -1682.015109  15251.214024     88.066670
PC46  -9603.152054  19911.331150  17055.793751    901.218620
PE01 -19105.442839  14172.732543  17615.725935   -816.441837
PE02  19007.577865 -14208.354172 -17686.190621    119.944509
PE03   8288.793655 -16352.283628  23237.703546   -277.678800
PE04   8775.684122  25622.593932 -11937.060289   -486.667540
PE05  20670.693032   2602.620115  21029.579016   -396.576521
PE07 -20890.683100 -19914.094528  -6544.528660   -355.277016
PE08  -9155.161898 -25536.207003  11832.555032   6205.615470
PE09  21033.654604  19745.492110   6662.695423   6123.042843
PE11  11692.758794  13027.080879 -23864.050261   1774.016393
PE12  -2501.785790  26944.717420 -11959.835619   5900.317444
PE13 -11518.292686 -13234.497204  23852.902986    399.285443
PE14  19289.567703  -7411.155163 -25132.496840   -943.321635
PE15   2267.229668 -26896.133523  12174.212223    873.711064
PE18 -11978.667580  10261.023956  17520.315000  -1041.410417
PE19      0.000000      0.000000      0.000000 999999.999999
PE21 -29329.491759   3995.237345    442.580213   -588.375254
PE24  22342.040493   8913.524585  17217.083008   5556.157703
PE25  29333.677201  -3925.259438   -337.285026   -506.916878
PE26 -18787.403461   8387.096364  21289.519719   3410.051259
PE27 -22499.905657  -8693.870553 -17165.881188    260.580012
PE30  -2159.233979 -16329.354511 -24606.828984   4060.772168
PE31   2475.214132  16232.346947  24630.318505   -472.016030
PE33 -14753.483553  24768.359355   6694.878854   -469.406334
PE36  18559.251753  -8226.216199 -21534.437891    585.006246
PG01 -13951.296812  21941.900581  -4658.929202   -328.547259
PG02  19358.901333  -9290.035507 -14944.005643   -423.312233
PG03  -8233.185499  13627.390337 -21298.406849   -120.078099
PG04  -2647.695159  22350.893271 -14073.557460    -63.378452
PG05  25172.623004  -2695.925650   8221.202196     -9.253660
PG06  15963.590769   2717.378079 -21007.781453   -232.758316
PG07    783.420653  19354.624912  18247.696756   -237.585315
PG08  -9945.226720  13287.240354  20700.102465    -27.376107
PG09   6464.670481  25304.113036  -4839.704183   -178.249330
PG10 -20835.946042 -11642.770626  11979.300346   -279.986712
PG11 -12539.680543  21140.225420   9940.406282   -331.714410
PG12  11347.408821 -11901.132256 -21052.892801    139.798430
PG13  14233.228296  -4840.612790  21771.226012     -5.158884
PG14 -16183.472201 -10741.569443 -17860.955050    -25.781633
PG15   8906.403487 -14945.176096  19662.356858   -244.420369
PG16 -25146.032880    -59.111575   9021.926463   -135.945375
PG17  13886.251115  19653.711833 -10870.420945    233.401378
PG18   6412.429996 -21979.510148  13454.671438    121.276141
PG19  15629.564322  12635.211768 -17660.661993   -184.687567
PG20 -11233.025350 -14511.834629  19187.548423    527.866881
PG21  -2929.312138 -19256.472214  18960.706558    -26.715046
PG22 -16832.727720  11350.061555 -16838.206534   -785.455010
PG23  -1107.412830  22579.861267 -13267.181064   -129.123730
PG24  13956.076043 -22273.319978  -2195.417553    -10.457947
PG25  -1781.918907 -15502.193167 -21755.769573     -8.613701
PG26 -26311.134860  -4247.767871  -1305.809086    169.165890
PG27 -15119.602768   1368.272568  21698.945274   -240.773087
PG28  20411.711148  13050.578979  11300.757926    732.299288
PG29  -3331.646781 -25526.999587  -6535.157788    -58.505401
PG30  10573.155052  11708.576325  21387.768392   -177.253003
PG31 -18016.963349   -250.933252 -19701.257311    -29.946273
PG32 -15786.238142 -18055.459957 -11495.625325    238.118664
PJ01 -23192.022869  18778.186114 -25230.954905   -343.679203
PJ02 -31322.643371  26112.599932  15531.200398     -1.890697
PJ03 -26529.398773  25236.080915  25961.838713     -1.184893
PJ07 -25411.257110  33635.920134    -32.997764      0.070287
PR01 -20822.305528  -9002.196735 -11646.156799     58.654560
PR02  -8779.096196   6828.544724 -22917.566941    417.124090
PR03   7199.338691  16677.552481 -17842.332339     11.677286
PR04  18984.158547  16820.533977  -2671.270511     42.281770
PR05  19899.107354   7557.359010  14052.090107     46.908833
PR07  -7693.084123 -16906.503573  17540.823590    -34.432117
PR08 -18899.395401 -16919.954546   2808.413405    -51.089384
PR09  17763.359744 -13512.916104 -12400.992617    122.289691
PR11 -13893.633502  -5329.827050 -20697.145853    -16.996374
PR12 -23561.228166   4907.709241  -8472.525303    114.660157
PR13 -20008.392485  12806.740990   9272.588659    -36.155444
PR14  -4751.641355  12913.714458  21482.211645     49.209211
PR15  13075.574749   5718.540873  21154.750888    106.156929
PR16  23502.453935  -5519.591133   8009.546102     -2.148977
PR17  -2823.084480  25241.137054  -2522.178446    309.680384
PR18   5201.980240  17645.000335 -17621.876361     28.772340
PR19  10319.581231   1327.598270 -23284.885626    -84.149505
PR20  10060.020803 -18300.266517 -14672.998838   -406.769761
PR21   2434.644229 -25145.308534   3463.135666   -111.800588
PR22  -6195.379657 -15536.141269  19318.522361    -18.171992
PR23 -11072.980880   6037.358936  22167.111575    293.087160
PR24  -9086.982033  20182.111387  12639.446671    -48.165668
PR26  10544.132125 -14833.992733 -17847.242984   -403.717933
EOF
